SITRO-AIS-61            
1 67297U 25313BB  26014.18438473  .00005888  00000+0  26308-3 0  9996
2 67297  97.4129  91.4004 0009181 172.6392 187.4980 15.21682190  2534
TIANHUI 7               
1 67300U 25314A   26008.13994258  .00002013  00000+0  82629-4 0  9994
2 67300  97.4205  85.2818 0001392 102.4970 257.6424 15.25383404  1382
CZ-4B R/B               
1 67301U 25314B   26014.15557451  .00075261  38283-5  36954-3 0  9998
2 67301  97.3746  92.1178 0139273 322.4971  36.6635 15.69282142  2311
SHIJIAN-29A (SJ-29A)    
1 67302U 25315A   26014.10355852 -.00000050  00000+0  00000+0 0  9990
2 67302   3.0081  99.2046 0001513 305.3250 179.3531  1.00271481    70
CZ-7A R/B               
1 67303U 25315B   26014.21776027  .00125003  91094-6  31802-2 0  9996
2 67303  19.5603  94.6557 7197759 189.7918 139.2917  2.43230631   353
CSG-3                   
1 67304U 26001A   26014.27879154  .00000290  00000+0  42834-4 0  9990
2 67304  97.8590 200.1824 0001553  91.4757 268.6634 14.82318226  1669
STARLINK-36490          
1 67305U 26002A   26014.25002315 -.01146455  00000+0 -40387-2 0  9993
2 67305  42.9978 280.5037 0001974 276.2442 105.3073 15.90706579  2724
STARLINK-36488          
1 67306U 26002B   26014.25002315 -.01141715  00000+0 -40127-2 0  9990
2 67306  42.9981 280.4988 0002022 279.4076 104.0401 15.90739323  2663
STARLINK-36481          
1 67307U 26002C   26014.25002315 -.01166101  00000+0 -40932-2 0  9991
2 67307  42.9979 280.4871 0001941 278.2385 109.9841 15.90821665  2664
STARLINK-36449          
1 67308U 26002D   26014.25002315 -.01172005  00000+0 -41081-2 0  9998
2 67308  42.9977 280.4812 0001968 277.6846 112.7796 15.90862276  2723
STARLINK-36482          
1 67309U 26002E   26014.25002315 -.01192883  00000+0 -41489-2 0  9997
2 67309  42.9983 280.4522 0001962 279.7983 122.4229 15.91059802  2664
STARLINK-36491          
1 67310U 26002F   26014.25002315 -.01155532  00000+0 -40588-2 0  9998
2 67310  42.9983 280.4918 0002005 279.6917 106.6943 15.90783289  2669
