CCSDS_OMM_VERS = 2.0
CREATION_DATE  = 
ORIGINATOR     = 

OBJECT_NAME    = SITRO-AIS-61
OBJECT_ID      = 2025-313BB
CENTER_NAME    = EARTH
REF_FRAME      = TEME
TIME_SYSTEM    = UTC
MEAN_ELEMENT_THEORY = SGP/SGP4

EPOCH          = 2026-01-14T04:25:30.840672
MEAN_MOTION    = 15.21682190
ECCENTRICITY   = .0009181
INCLINATION    = 97.4129
RA_OF_ASC_NODE = 91.4004
ARG_OF_PERICENTER = 172.6392
MEAN_ANOMALY   = 187.4980

EPHEMERIS_TYPE = 0
CLASSIFICATION_TYPE = U
NORAD_CAT_ID   = 67297
ELEMENT_SET_NO = 999
REV_AT_EPOCH   = 253
BSTAR          = .26308092E-3
MEAN_MOTION_DOT = .5888E-4
MEAN_MOTION_DDOT = 0

CCSDS_OMM_VERS = 2.0
CREATION_DATE  = 
ORIGINATOR     = 

OBJECT_NAME    = TIANHUI 7
OBJECT_ID      = 2025-314A
CENTER_NAME    = EARTH
REF_FRAME      = TEME
TIME_SYSTEM    = UTC
MEAN_ELEMENT_THEORY = SGP/SGP4

EPOCH          = 2026-01-08T03:21:31.038912
MEAN_MOTION    = 15.25383404
ECCENTRICITY   = .00013928
INCLINATION    = 97.4205
RA_OF_ASC_NODE = 85.2818
ARG_OF_PERICENTER = 102.4970
MEAN_ANOMALY   = 257.6424

EPHEMERIS_TYPE = 0
CLASSIFICATION_TYPE = U
NORAD_CAT_ID   = 67300
ELEMENT_SET_NO = 999
REV_AT_EPOCH   = 138
BSTAR          = .82629326E-4
MEAN_MOTION_DOT = .2013E-4
MEAN_MOTION_DDOT = 0

CCSDS_OMM_VERS = 2.0
CREATION_DATE  = 
ORIGINATOR     = 

OBJECT_NAME    = CZ-4B R/B
OBJECT_ID      = 2025-314B
CENTER_NAME    = EARTH
REF_FRAME      = TEME
TIME_SYSTEM    = UTC
MEAN_ELEMENT_THEORY = SGP/SGP4

EPOCH          = 2026-01-14T03:44:01.637664
MEAN_MOTION    = 15.69282142
ECCENTRICITY   = .01392739
INCLINATION    = 97.3746
RA_OF_ASC_NODE = 92.1178
ARG_OF_PERICENTER = 322.4971
MEAN_ANOMALY   = 36.6635

EPHEMERIS_TYPE = 0
CLASSIFICATION_TYPE = U
NORAD_CAT_ID   = 67301
ELEMENT_SET_NO = 999
REV_AT_EPOCH   = 231
BSTAR          = .36954369E-3
MEAN_MOTION_DOT = .75261E-3
MEAN_MOTION_DDOT = .3828277E-5

CCSDS_OMM_VERS = 2.0
CREATION_DATE  = 
ORIGINATOR     = 

OBJECT_NAME    = SHIJIAN-29A (SJ-29A)
OBJECT_ID      = 2025-315A
CENTER_NAME    = EARTH
REF_FRAME      = TEME
TIME_SYSTEM    = UTC
MEAN_ELEMENT_THEORY = SGP/SGP4

EPOCH          = 2026-01-14T02:29:07.456128
MEAN_MOTION    = 1.00271481
ECCENTRICITY   = .00015137
INCLINATION    = 3.0081
RA_OF_ASC_NODE = 99.2046
ARG_OF_PERICENTER = 305.3250
MEAN_ANOMALY   = 179.3531

EPHEMERIS_TYPE = 0
CLASSIFICATION_TYPE = U
NORAD_CAT_ID   = 67302
ELEMENT_SET_NO = 999
REV_AT_EPOCH   = 7
BSTAR          = 0
MEAN_MOTION_DOT = -.5E-6
MEAN_MOTION_DDOT = 0

CCSDS_OMM_VERS = 2.0
CREATION_DATE  = 
ORIGINATOR     = 

OBJECT_NAME    = CZ-7A R/B
OBJECT_ID      = 2025-315B
CENTER_NAME    = EARTH
REF_FRAME      = TEME
TIME_SYSTEM    = UTC
MEAN_ELEMENT_THEORY = SGP/SGP4

EPOCH          = 2026-01-14T05:13:34.487328
MEAN_MOTION    = 2.43230631
ECCENTRICITY   = .71977595
INCLINATION    = 19.5603
RA_OF_ASC_NODE = 94.6557
ARG_OF_PERICENTER = 189.7918
MEAN_ANOMALY   = 139.2917

EPHEMERIS_TYPE = 0
CLASSIFICATION_TYPE = U
NORAD_CAT_ID   = 67303
ELEMENT_SET_NO = 999
REV_AT_EPOCH   = 35
BSTAR          = .31801678E-2
MEAN_MOTION_DOT = .125003E-2
MEAN_MOTION_DDOT = .910945E-6

CCSDS_OMM_VERS = 2.0
CREATION_DATE  = 
ORIGINATOR     = 

OBJECT_NAME    = CSG-3
OBJECT_ID      = 2026-001A
CENTER_NAME    = EARTH
REF_FRAME      = TEME
TIME_SYSTEM    = UTC
MEAN_ELEMENT_THEORY = SGP/SGP4

EPOCH          = 2026-01-14T06:41:27.589056
MEAN_MOTION    = 14.82318226
ECCENTRICITY   = .00015537
INCLINATION    = 97.8590
RA_OF_ASC_NODE = 200.1824
ARG_OF_PERICENTER = 91.4757
MEAN_ANOMALY   = 268.6634

EPHEMERIS_TYPE = 0
CLASSIFICATION_TYPE = U
NORAD_CAT_ID   = 67304
ELEMENT_SET_NO = 999
REV_AT_EPOCH   = 166
BSTAR          = .42833614E-4
MEAN_MOTION_DOT = .29E-5
MEAN_MOTION_DDOT = 0

CCSDS_OMM_VERS = 2.0
CREATION_DATE  = 
ORIGINATOR     = 

OBJECT_NAME    = STARLINK-36490
OBJECT_ID      = 2026-002A
CENTER_NAME    = EARTH
REF_FRAME      = TEME
TIME_SYSTEM    = UTC
MEAN_ELEMENT_THEORY = SGP/SGP4

EPOCH          = 2026-01-14T06:00:02.000160
MEAN_MOTION    = 15.90706579
ECCENTRICITY   = .00019744
INCLINATION    = 42.9978
RA_OF_ASC_NODE = 280.5037
ARG_OF_PERICENTER = 276.2442
MEAN_ANOMALY   = 105.3073

EPHEMERIS_TYPE = 0
CLASSIFICATION_TYPE = U
NORAD_CAT_ID   = 67305
ELEMENT_SET_NO = 999
REV_AT_EPOCH   = 272
BSTAR          = -.40387078E-2
MEAN_MOTION_DOT = -.1146455E-1
MEAN_MOTION_DDOT = 0

CCSDS_OMM_VERS = 2.0
CREATION_DATE  = 
ORIGINATOR     = 

OBJECT_NAME    = STARLINK-36488
OBJECT_ID      = 2026-002B
CENTER_NAME    = EARTH
REF_FRAME      = TEME
TIME_SYSTEM    = UTC
MEAN_ELEMENT_THEORY = SGP/SGP4

EPOCH          = 2026-01-14T06:00:02.000160
MEAN_MOTION    = 15.90739323
ECCENTRICITY   = .00020222
INCLINATION    = 42.9981
RA_OF_ASC_NODE = 280.4988
ARG_OF_PERICENTER = 279.4076
MEAN_ANOMALY   = 104.0401

EPHEMERIS_TYPE = 0
CLASSIFICATION_TYPE = U
NORAD_CAT_ID   = 67306
ELEMENT_SET_NO = 999
REV_AT_EPOCH   = 266
BSTAR          = -.40127346E-2
MEAN_MOTION_DOT = -.1141715E-1
MEAN_MOTION_DDOT = 0

CCSDS_OMM_VERS = 2.0
CREATION_DATE  = 
ORIGINATOR     = 

OBJECT_NAME    = STARLINK-36481
OBJECT_ID      = 2026-002C
CENTER_NAME    = EARTH
REF_FRAME      = TEME
TIME_SYSTEM    = UTC
MEAN_ELEMENT_THEORY = SGP/SGP4

EPOCH          = 2026-01-14T06:00:02.000160
MEAN_MOTION    = 15.90821665
ECCENTRICITY   = .00019413
INCLINATION    = 42.9979
RA_OF_ASC_NODE = 280.4871
ARG_OF_PERICENTER = 278.2385
MEAN_ANOMALY   = 109.9841

EPHEMERIS_TYPE = 0
CLASSIFICATION_TYPE = U
NORAD_CAT_ID   = 67307
ELEMENT_SET_NO = 999
REV_AT_EPOCH   = 266
BSTAR          = -.40931708E-2
MEAN_MOTION_DOT = -.1166101E-1
MEAN_MOTION_DDOT = 0

CCSDS_OMM_VERS = 2.0
CREATION_DATE  = 
ORIGINATOR     = 

OBJECT_NAME    = STARLINK-36449
OBJECT_ID      = 2026-002D
CENTER_NAME    = EARTH
REF_FRAME      = TEME
TIME_SYSTEM    = UTC
MEAN_ELEMENT_THEORY = SGP/SGP4

EPOCH          = 2026-01-14T06:00:02.000160
MEAN_MOTION    = 15.90862276
ECCENTRICITY   = .00019685
INCLINATION    = 42.9977
RA_OF_ASC_NODE = 280.4812
ARG_OF_PERICENTER = 277.6846
MEAN_ANOMALY   = 112.7796

EPHEMERIS_TYPE = 0
CLASSIFICATION_TYPE = U
NORAD_CAT_ID   = 67308
ELEMENT_SET_NO = 999
REV_AT_EPOCH   = 272
BSTAR          = -.41080562E-2
MEAN_MOTION_DOT = -.1172005E-1
MEAN_MOTION_DDOT = 0

CCSDS_OMM_VERS = 2.0
CREATION_DATE  = 
ORIGINATOR     = 

OBJECT_NAME    = STARLINK-36482
OBJECT_ID      = 2026-002E
CENTER_NAME    = EARTH
REF_FRAME      = TEME
TIME_SYSTEM    = UTC
MEAN_ELEMENT_THEORY = SGP/SGP4

EPOCH          = 2026-01-14T06:00:02.000160
MEAN_MOTION    = 15.91059802
ECCENTRICITY   = .00019625
INCLINATION    = 42.9983
RA_OF_ASC_NODE = 280.4522
ARG_OF_PERICENTER = 279.7983
MEAN_ANOMALY   = 122.4229

EPHEMERIS_TYPE = 0
CLASSIFICATION_TYPE = U
NORAD_CAT_ID   = 67309
ELEMENT_SET_NO = 999
REV_AT_EPOCH   = 266
BSTAR          = -.41488872E-2
MEAN_MOTION_DOT = -.1192883E-1
MEAN_MOTION_DDOT = 0

CCSDS_OMM_VERS = 2.0
CREATION_DATE  = 
ORIGINATOR     = 

OBJECT_NAME    = STARLINK-36491
OBJECT_ID      = 2026-002F
CENTER_NAME    = EARTH
REF_FRAME      = TEME
TIME_SYSTEM    = UTC
MEAN_ELEMENT_THEORY = SGP/SGP4

EPOCH          = 2026-01-14T06:00:02.000160
MEAN_MOTION    = 15.90783289
ECCENTRICITY   = .00020058
INCLINATION    = 42.9983
RA_OF_ASC_NODE = 280.4918
ARG_OF_PERICENTER = 279.6917
MEAN_ANOMALY   = 106.6943

EPHEMERIS_TYPE = 0
CLASSIFICATION_TYPE = U
NORAD_CAT_ID   = 67310
ELEMENT_SET_NO = 999
REV_AT_EPOCH   = 266
BSTAR          = -.40588123E-2
MEAN_MOTION_DOT = -.1155532E-1
MEAN_MOTION_DDOT = 0

